{
    "links": {
        "self": "http://www.neowsapp.com/rest/v1/neo/3486120?api_key=iIulBulltgU6a56xZRHN4H3l9WmuAYTsLGpBGhQ2"
    },
    "id": "3486120",
    "neo_reference_id": "3486120",
    "name": "(2010 BQ)",
    "designation": "2010 BQ",
    "nasa_jpl_url": "http://ssd.jpl.nasa.gov/sbdb.cgi?sstr=3486120",
    "absolute_magnitude_h": 20.2,
    "estimated_diameter": {
        "kilometers": {
            "estimated_diameter_min": 0.2424124811,
            "estimated_diameter_max": 0.5420507863
        },
        "meters": {
            "estimated_diameter_min": 242.4124811008,
            "estimated_diameter_max": 542.0507863358
        },
        "miles": {
            "estimated_diameter_min": 0.1506280858,
            "estimated_diameter_max": 0.3368146392
        },
        "feet": {
            "estimated_diameter_min": 795.3165644948,
            "estimated_diameter_max": 1778.3819018419
        }
    },
    "is_potentially_hazardous_asteroid": false,
    "close_approach_data": [
        {
            "close_approach_date": "2008-08-24",
            "close_approach_date_full": "2008-Aug-24 05:17",
            "epoch_date_close_approach": 1219555020000,
            "relative_velocity": {
                "kilometers_per_second": "8.6759072742",
                "kilometers_per_hour": "31233.2661869715",
                "miles_per_hour": "19407.1369815657"
            },
            "miss_distance": {
                "astronomical": "1.8400261756",
                "lunar": "715.7701823084",
                "kilometers": "275263996.614005972",
                "miles": "171041116.2139955336"
            },
            "orbiting_body": "Juptr"
        },
        {
            "close_approach_date": "2010-01-16",
            "close_approach_date_full": "2010-Jan-16 09:07",
            "epoch_date_close_approach": 1263632820000,
            "relative_velocity": {
                "kilometers_per_second": "20.9402897682",
                "kilometers_per_hour": "75385.0431654732",
                "miles_per_hour": "46841.3341824575"
            },
            "miss_distance": {
                "astronomical": "0.1779478152",
                "lunar": "69.2217001128",
                "kilometers": "26620614.125073624",
                "miles": "16541282.5878550512"
            },
            "orbiting_body": "Earth"
        }
    ],
    "orbital_data": {
        "orbit_id": "15",
        "orbit_determination_date": "2017-04-06 08:58:33",
        "first_observation_date": "2010-01-16",
        "last_observation_date": "2010-02-08",
        "data_arc_in_days": 23,
        "observations_used": 59,
        "orbit_uncertainty": "7",
        "minimum_orbit_intersection": ".122324",
        "jupiter_tisserand_invariant": "3.127",
        "epoch_osculation": "2459000.5",
        "eccentricity": ".5472494314827636",
        "semi_major_axis": "2.329886214796927",
        "inclination": "37.06786962733166",
        "ascending_node_longitude": "302.8166681663314",
        "orbital_period": "1298.974108162794",
        "perihelion_distance": "1.054857308329781",
        "perihelion_argument": "148.5746231524801",
        "aphelion_distance": "3.604915121264073",
        "perihelion_time": "2459085.262786108538",
        "mean_anomaly": "336.5086903523951",
        "mean_motion": ".2771417826866206",
        "equinox": "J2000",
        "orbit_class": {
            "orbit_class_type": "AMO",
            "orbit_class_description": "Near-Earth asteroid orbits similar to that of 1221 Amor",
            "orbit_class_range": "1.017 AU < q (perihelion) < 1.3 AU"
        }
    },
    "is_sentry_object": false
}